{
  "type": "FeatureCollection",
  "features": [
    {
      "type": "Feature",
      "properties": {
        "norad_id": 44543,
        "name": "BEIDOU-3 M23 (C45)",
        "group": "beidou",
        "lat": NaN,
        "lon": NaN,
        "alt_km": NaN,
        "timestamp": "2025-12-01T03:12:44.534458+00:00",
        "meta": {
          "OBJECT_NAME": "BEIDOU-3 M23 (C45)",
          "OBJECT_ID": "2019-061B",
          "EPOCH": "2025-11-30T16:39:35.371296",
          "MEAN_MOTION": 1.86229336,
          "ECCENTRICITY": 0.0006005,
          "INCLINATION": 54.3987,
          "RA_OF_ASC_NODE": 189.3914,
          "ARG_OF_PERICENTER": 20.8242,
          "MEAN_ANOMALY": 335.9718,
          "EPHEMERIS_TYPE": 0,
          "CLASSIFICATION_TYPE": "U",
          "NORAD_CAT_ID": 44543,
          "ELEMENT_SET_NO": 999,
          "REV_AT_EPOCH": 4209,
          "BSTAR": 0,
          "MEAN_MOTION_DOT": 1.15e-06,
          "MEAN_MOTION_DDOT": 0
        }
      },
      "geometry": {
        "type": "Point",
        "coordinates": [
          NaN,
          NaN
        ]
      }
    },
    {
      "type": "Feature",
      "properties": {
        "norad_id": 44709,
        "name": "BEIDOU-3 IGSO-3 (C40)",
        "group": "beidou",
        "lat": NaN,
        "lon": NaN,
        "alt_km": NaN,
        "timestamp": "2025-12-01T03:12:44.534466+00:00",
        "meta": {
          "OBJECT_NAME": "BEIDOU-3 IGSO-3 (C40)",
          "OBJECT_ID": "2019-073A",
          "EPOCH": "2025-11-20T07:11:22.740000",
          "MEAN_MOTION": 1.00250097,
          "ECCENTRICITY": 0.0044538,
          "INCLINATION": 55.163,
          "RA_OF_ASC_NODE": 283.159,
          "ARG_OF_PERICENTER": 191.5856,
          "MEAN_ANOMALY": 168.2409,
          "EPHEMERIS_TYPE": 0,
          "CLASSIFICATION_TYPE": "U",
          "NORAD_CAT_ID": 44709,
          "ELEMENT_SET_NO": 999,
          "REV_AT_EPOCH": 2236,
          "BSTAR": 0,
          "MEAN_MOTION_DOT": -2.06e-06,
          "MEAN_MOTION_DDOT": 0
        }
      },
      "geometry": {
        "type": "Point",
        "coordinates": [
          NaN,
          NaN
        ]
      }
    },
    {
      "type": "Feature",
      "properties": {
        "norad_id": 44793,
        "name": "BEIDOU-3 M22 (C44)",
        "group": "beidou",
        "lat": NaN,
        "lon": NaN,
        "alt_km": NaN,
        "timestamp": "2025-12-01T03:12:44.534825+00:00",
        "meta": {
          "OBJECT_NAME": "BEIDOU-3 M22 (C44)",
          "OBJECT_ID": "2019-078A",
          "EPOCH": "2025-11-30T09:49:22.120320",
          "MEAN_MOTION": 1.86231859,
          "ECCENTRICITY": 0.0005608,
          "INCLINATION": 54.1199,
          "RA_OF_ASC_NODE": 306.819,
          "ARG_OF_PERICENTER": 22.4317,
          "MEAN_ANOMALY": 337.5884,
          "EPHEMERIS_TYPE": 0,
          "CLASSIFICATION_TYPE": "U",
          "NORAD_CAT_ID": 44793,
          "ELEMENT_SET_NO": 999,
          "REV_AT_EPOCH": 4094,
          "BSTAR": 0,
          "MEAN_MOTION_DOT": -5.3e-07,
          "MEAN_MOTION_DDOT": 0
        }
      },
      "geometry": {
        "type": "Point",
        "coordinates": [
          NaN,
          NaN
        ]
      }
    },
    {
      "type": "Feature",
      "properties": {
        "norad_id": 44794,
        "name": "BEIDOU-3 M21 (C43)",
        "group": "beidou",
        "lat": NaN,
        "lon": NaN,
        "alt_km": NaN,
        "timestamp": "2025-12-01T03:12:44.534831+00:00",
        "meta": {
          "OBJECT_NAME": "BEIDOU-3 M21 (C43)",
          "OBJECT_ID": "2019-078B",
          "EPOCH": "2025-11-30T13:07:12.816768",
          "MEAN_MOTION": 1.86227555,
          "ECCENTRICITY": 0.0003851,
          "INCLINATION": 54.0927,
          "RA_OF_ASC_NODE": 306.7796,
          "ARG_OF_PERICENTER": 9.9738,
          "MEAN_ANOMALY": 350.0289,
          "EPHEMERIS_TYPE": 0,
          "CLASSIFICATION_TYPE": "U",
          "NORAD_CAT_ID": 44794,
          "ELEMENT_SET_NO": 999,
          "REV_AT_EPOCH": 4095,
          "BSTAR": 0,
          "MEAN_MOTION_DOT": -5.4e-07,
          "MEAN_MOTION_DDOT": 0
        }
      },
      "geometry": {
        "type": "Point",
        "coordinates": [
          NaN,
          NaN
        ]
      }
    },
    {
      "type": "Feature",
      "properties": {
        "norad_id": 44864,
        "name": "BEIDOU-3 M19 (C41)",
        "group": "beidou",
        "lat": NaN,
        "lon": NaN,
        "alt_km": NaN,
        "timestamp": "2025-12-01T03:12:44.534838+00:00",
        "meta": {
          "OBJECT_NAME": "BEIDOU-3 M19 (C41)",
          "OBJECT_ID": "2019-090A",
          "EPOCH": "2025-11-30T07:50:16.471392",
          "MEAN_MOTION": 1.86231174,
          "ECCENTRICITY": 0.00174505,
          "INCLINATION": 56.3822,
          "RA_OF_ASC_NODE": 69.374,
          "ARG_OF_PERICENTER": 284.6281,
          "MEAN_ANOMALY": 123.4614,
          "EPHEMERIS_TYPE": 0,
          "CLASSIFICATION_TYPE": "U",
          "NORAD_CAT_ID": 44864,
          "ELEMENT_SET_NO": 999,
          "REV_AT_EPOCH": 4053,
          "BSTAR": 0,
          "MEAN_MOTION_DOT": -3.3e-07,
          "MEAN_MOTION_DDOT": 0
        }
      },
      "geometry": {
        "type": "Point",
        "coordinates": [
          NaN,
          NaN
        ]
      }
    },
    {
      "type": "Feature",
      "properties": {
        "norad_id": 44865,
        "name": "BEIDOU-3 M20 (C42)",
        "group": "beidou",
        "lat": NaN,
        "lon": NaN,
        "alt_km": NaN,
        "timestamp": "2025-12-01T03:12:44.534844+00:00",
        "meta": {
          "OBJECT_NAME": "BEIDOU-3 M20 (C42)",
          "OBJECT_ID": "2019-090B",
          "EPOCH": "2025-11-30T17:30:55.303200",
          "MEAN_MOTION": 1.86231137,
          "ECCENTRICITY": 0.0014593,
          "INCLINATION": 56.3841,
          "RA_OF_ASC_NODE": 69.3949,
          "ARG_OF_PERICENTER": 297.5336,
          "MEAN_ANOMALY": 110.5134,
          "EPHEMERIS_TYPE": 0,
          "CLASSIFICATION_TYPE": "U",
          "NORAD_CAT_ID": 44865,
          "ELEMENT_SET_NO": 999,
          "REV_AT_EPOCH": 4052,
          "BSTAR": 0,
          "MEAN_MOTION_DOT": -3.6e-07,
          "MEAN_MOTION_DDOT": 0
        }
      },
      "geometry": {
        "type": "Point",
        "coordinates": [
          NaN,
          NaN
        ]
      }
    },
    {
      "type": "Feature",
      "properties": {
        "norad_id": 45344,
        "name": "BEIDOU-3 G2 (C60)",
        "group": "beidou",
        "lat": NaN,
        "lon": NaN,
        "alt_km": NaN,
        "timestamp": "2025-12-01T03:12:44.534865+00:00",
        "meta": {
          "OBJECT_NAME": "BEIDOU-3 G2 (C60)",
          "OBJECT_ID": "2020-017A",
          "EPOCH": "2025-11-30T21:04:21.466272",
          "MEAN_MOTION": 1.00270725,
          "ECCENTRICITY": 0.0004412,
          "INCLINATION": 2.977,
          "RA_OF_ASC_NODE": 43.5121,
          "ARG_OF_PERICENTER": 264.0139,
          "MEAN_ANOMALY": 158.6326,
          "EPHEMERIS_TYPE": 0,
          "CLASSIFICATION_TYPE": "U",
          "NORAD_CAT_ID": 45344,
          "ELEMENT_SET_NO": 999,
          "REV_AT_EPOCH": 2127,
          "BSTAR": 0,
          "MEAN_MOTION_DOT": -1.21e-06,
          "MEAN_MOTION_DDOT": 0
        }
      },
      "geometry": {
        "type": "Point",
        "coordinates": [
          NaN,
          NaN
        ]
      }
    },
    {
      "type": "Feature",
      "properties": {
        "norad_id": 45807,
        "name": "BEIDOU-3 G3 (C61)",
        "group": "beidou",
        "lat": NaN,
        "lon": NaN,
        "alt_km": NaN,
        "timestamp": "2025-12-01T03:12:44.535294+00:00",
        "meta": {
          "OBJECT_NAME": "BEIDOU-3 G3 (C61)",
          "OBJECT_ID": "2020-040A",
          "EPOCH": "2025-11-30T14:22:11.504064",
          "MEAN_MOTION": 1.00268305,
          "ECCENTRICITY": 0.00049384,
          "INCLINATION": 1.9592,
          "RA_OF_ASC_NODE": 66.4892,
          "ARG_OF_PERICENTER": 307.3549,
          "MEAN_ANOMALY": 21.9844,
          "EPHEMERIS_TYPE": 0,
          "CLASSIFICATION_TYPE": "U",
          "NORAD_CAT_ID": 45807,
          "ELEMENT_SET_NO": 999,
          "REV_AT_EPOCH": 2007,
          "BSTAR": 0,
          "MEAN_MOTION_DOT": -3.32e-06,
          "MEAN_MOTION_DDOT": 0
        }
      },
      "geometry": {
        "type": "Point",
        "coordinates": [
          NaN,
          NaN
        ]
      }
    }
  ]
}